start=new Date('2022-06-29T00:00:00.000Z').valueOf();
sats=[{"ELEMENT_SET_NO":"999","TIME_SYSTEM":"UTC","MEAN_MOTION_DOT":"-0.00718485","RA_OF_ASC_NODE":"141.3144","SITE":"AFETR","ARG_OF_PERICENTER":"52.8678","CLASSIFICATION_TYPE":"U","CENTER_NAME":"EARTH","MEAN_MOTION_DDOT":"0.0000000000000","FILE":"3504942","OBJECT_ID":"2022-045R","ECCENTRICITY":"0.00014420","EPOCH":"2022-06-28T22:00:00.999936","PERIAPSIS":"434.622","REF_FRAME":"TEME","MEAN_ELEMENT_THEORY":"SGP4","MEAN_MOTION":"15.43563312","EPHEMERIS_TYPE":"0","MEAN_ANOMALY":"236.0672","RCS_SIZE":"LARGE","OBJECT_NAME":"STARLINK-3812","GP_ID":"207062873","TLE_LINE2":"2 52346  53.2176 141.3144 0001442  52.8678 236.0672 15.43563312  1304","SEMIMAJOR_AXIS":"6813.740","LAUNCH_DATE":"2022-04-29","TLE_LINE1":"1 52346U 22045R   22179.91667824 -.00718485  00000-0 -17026-1 0  9999","OBJECT_TYPE":"PAYLOAD","INCLINATION":"53.2176","REV_AT_EPOCH":"130","APOAPSIS":"436.587","PERIOD":"93.291","COUNTRY_CODE":"US","DECAY_DATE":null,"NORAD_CAT_ID":"52346","BSTAR":"-0.01702600000000"},{"LAUNCH_DATE":"2022-04-29","TLE_LINE1":"1 52347U 22045S   22179.91667824 -.00718372  00000-0 -17365-1 0  9991","OBJECT_TYPE":"PAYLOAD","GP_ID":"207062773","SEMIMAJOR_AXIS":"6815.465","TLE_LINE2":"2 52347  53.2176 141.2820 0001434  57.6172 218.8165 15.42977335  1306","RCS_SIZE":"LARGE","OBJECT_NAME":"STARLINK-3826","MEAN_ANOMALY":"218.8165","INCLINATION":"53.2176","REV_AT_EPOCH":"130","APOAPSIS":"438.307","NORAD_CAT_ID":"52347","BSTAR":"-0.01736500000000","COUNTRY_CODE":"US","DECAY_DATE":null,"PERIOD":"93.326","MEAN_MOTION_DOT":"-0.00718372","RA_OF_ASC_NODE":"141.2820","SITE":"AFETR","TIME_SYSTEM":"UTC","ELEMENT_SET_NO":"999","FILE":"3504942","OBJECT_ID":"2022-045S","CENTER_NAME":"EARTH","CLASSIFICATION_TYPE":"U","MEAN_MOTION_DDOT":"0.0000000000000","ARG_OF_PERICENTER":"57.6172","EPOCH":"2022-06-28T22:00:00.999936","ECCENTRICITY":"0.00014340","EPHEMERIS_TYPE":"0","MEAN_ELEMENT_THEORY":"SGP4","MEAN_MOTION":"15.42977335","PERIAPSIS":"436.352","REF_FRAME":"TEME"},{"LAUNCH_DATE":"2022-04-29","TLE_LINE1":"1 52348U 22045T   22179.91667824 -.00718719  00000-0 -16803-1 0  9993","OBJECT_TYPE":"PAYLOAD","GP_ID":"207062235","SEMIMAJOR_AXIS":"6812.573","TLE_LINE2":"2 52348  53.2176 141.3367 0001588  44.4649 251.8749 15.43959864  1300","RCS_SIZE":"LARGE","OBJECT_NAME":"STARLINK-3829","MEAN_ANOMALY":"251.8749","INCLINATION":"53.2176","REV_AT_EPOCH":"130","APOAPSIS":"435.520","NORAD_CAT_ID":"52348","BSTAR":"-0.01680300000000","COUNTRY_CODE":"US","DECAY_DATE":null,"PERIOD":"93.267","MEAN_MOTION_DOT":"-0.00718719","SITE":"AFETR","RA_OF_ASC_NODE":"141.3367","TIME_SYSTEM":"UTC","ELEMENT_SET_NO":"999","FILE":"3504942","OBJECT_ID":"2022-045T","CENTER_NAME":"EARTH","CLASSIFICATION_TYPE":"U","MEAN_MOTION_DDOT":"0.0000000000000","ARG_OF_PERICENTER":"44.4649","EPOCH":"2022-06-28T22:00:00.999936","ECCENTRICITY":"0.00015880","EPHEMERIS_TYPE":"0","MEAN_ELEMENT_THEORY":"SGP4","MEAN_MOTION":"15.43959864","REF_FRAME":"TEME","PERIAPSIS":"433.356"},{"MEAN_ANOMALY":"234.5637","OBJECT_NAME":"STARLINK-3819","RCS_SIZE":"LARGE","TLE_LINE2":"2 52349  53.2176 141.3047 0001516  49.8212 234.5637 15.43373893  1308","SEMIMAJOR_AXIS":"6814.297","GP_ID":"207062333","TLE_LINE1":"1 52349U 22045U   22179.91667824 -.00718615  00000-0 -17139-1 0  9992","OBJECT_TYPE":"PAYLOAD","LAUNCH_DATE":"2022-04-29","INCLINATION":"53.2176","APOAPSIS":"437.195","REV_AT_EPOCH":"130","PERIOD":"93.302","DECAY_DATE":null,"COUNTRY_CODE":"US","BSTAR":"-0.01713900000000","NORAD_CAT_ID":"52349","ELEMENT_SET_NO":"999","TIME_SYSTEM":"UTC","SITE":"AFETR","RA_OF_ASC_NODE":"141.3047","MEAN_MOTION_DOT":"-0.00718615","ARG_OF_PERICENTER":"49.8212","MEAN_MOTION_DDOT":"0.0000000000000","CENTER_NAME":"EARTH","CLASSIFICATION_TYPE":"U","OBJECT_ID":"2022-045U","FILE":"3504942","ECCENTRICITY":"0.00015160","EPOCH":"2022-06-28T22:00:00.999936","PERIAPSIS":"435.129","REF_FRAME":"TEME","MEAN_MOTION":"15.43373893","MEAN_ELEMENT_THEORY":"SGP4","EPHEMERIS_TYPE":"0"},{"NORAD_CAT_ID":"52350","BSTAR":"-0.01668700000000","COUNTRY_CODE":"US","DECAY_DATE":null,"PERIOD":"93.255","REV_AT_EPOCH":"130","APOAPSIS":"434.917","INCLINATION":"53.2176","LAUNCH_DATE":"2022-04-29","OBJECT_TYPE":"PAYLOAD","TLE_LINE1":"1 52350U 22045V   22179.91667824 -.00718604  00000-0 -16687-1 0  9999","GP_ID":"207062524","TLE_LINE2":"2 52350  53.2176 141.3478 0001558  45.0463 254.8572 15.44158014  1300","SEMIMAJOR_AXIS":"6811.990","RCS_SIZE":"LARGE","OBJECT_NAME":"STARLINK-3754","MEAN_ANOMALY":"254.8572","EPHEMERIS_TYPE":"0","MEAN_ELEMENT_THEORY":"SGP4","MEAN_MOTION":"15.44158014","PERIAPSIS":"432.794","REF_FRAME":"TEME","EPOCH":"2022-06-28T22:00:00.999936","ECCENTRICITY":"0.00015580","FILE":"3504942","OBJECT_ID":"2022-045V","CENTER_NAME":"EARTH","CLASSIFICATION_TYPE":"U","MEAN_MOTION_DDOT":"0.0000000000000","ARG_OF_PERICENTER":"45.0463","MEAN_MOTION_DOT":"-0.00718604","RA_OF_ASC_NODE":"141.3478","SITE":"AFETR","TIME_SYSTEM":"UTC","ELEMENT_SET_NO":"999"},{"REF_FRAME":"TEME","PERIAPSIS":"434.003","EPHEMERIS_TYPE":"0","MEAN_ELEMENT_THEORY":"SGP4","MEAN_MOTION":"15.43761453","EPOCH":"2022-06-28T22:00:00.999936","ECCENTRICITY":"0.00014950","ARG_OF_PERICENTER":"49.3513","OBJECT_ID":"2022-045W","FILE":"3504942","MEAN_MOTION_DDOT":"0.0000000000000","CLASSIFICATION_TYPE":"U","CENTER_NAME":"EARTH","TIME_SYSTEM":"UTC","ELEMENT_SET_NO":"999","RA_OF_ASC_NODE":"141.3257","SITE":"AFETR","MEAN_MOTION_DOT":"-0.00718391","PERIOD":"93.279","BSTAR":"-0.01690900000000","NORAD_CAT_ID":"52351","DECAY_DATE":null,"COUNTRY_CODE":"US","APOAPSIS":"436.040","REV_AT_EPOCH":"130","INCLINATION":"53.2176","OBJECT_NAME":"STARLINK-3816","RCS_SIZE":"LARGE","MEAN_ANOMALY":"243.3324","TLE_LINE1":"1 52351U 22045W   22179.91667824 -.00718391  00000-0 -16909-1 0  9990","OBJECT_TYPE":"PAYLOAD","LAUNCH_DATE":"2022-04-29","TLE_LINE2":"2 52351  53.2176 141.3257 0001495  49.3513 243.3324 15.43761453  1303","SEMIMAJOR_AXIS":"6813.157","GP_ID":"207062425"},{"EPOCH":"2022-06-28T22:00:00.999936","ECCENTRICITY":"0.00014230","EPHEMERIS_TYPE":"0","MEAN_ELEMENT_THEORY":"SGP4","MEAN_MOTION":"15.44752619","REF_FRAME":"TEME","PERIAPSIS":"431.138","RA_OF_ASC_NODE":"141.3808","SITE":"AFETR","MEAN_MOTION_DOT":"-0.00718545","TIME_SYSTEM":"UTC","ELEMENT_SET_NO":"999","OBJECT_ID":"2022-045X","FILE":"3504942","MEAN_MOTION_DDOT":"0.0000000000000","CENTER_NAME":"EARTH","CLASSIFICATION_TYPE":"U","ARG_OF_PERICENTER":"50.8146","APOAPSIS":"433.076","REV_AT_EPOCH":"130","BSTAR":"-0.01635000000000","NORAD_CAT_ID":"52352","DECAY_DATE":null,"COUNTRY_CODE":"US","PERIOD":"93.219","TLE_LINE1":"1 52352U 22045X   22179.91667824 -.00718545  00000-0 -16350-1 0  9992","OBJECT_TYPE":"PAYLOAD","LAUNCH_DATE":"2022-04-29","TLE_LINE2":"2 52352  53.2176 141.3808 0001423  50.8146 259.2255 15.44752619  1300","SEMIMAJOR_AXIS":"6810.242","GP_ID":"207062583","OBJECT_NAME":"STARLINK-3838","RCS_SIZE":"LARGE","MEAN_ANOMALY":"259.2255","INCLINATION":"53.2176"},{"TLE_LINE1":"1 52353U 22045Y   22179.91667824 -.00718755  00000-0 -16578-1 0  9998","OBJECT_TYPE":"PAYLOAD","LAUNCH_DATE":"2022-04-29","TLE_LINE2":"2 52353  53.2176 141.3591 0001587  43.3856 259.9893 15.44356288  1303","SEMIMAJOR_AXIS":"6811.407","GP_ID":"207062681","OBJECT_NAME":"STARLINK-3807","RCS_SIZE":"LARGE","MEAN_ANOMALY":"259.9893","INCLINATION":"53.2176","APOAPSIS":"434.353","REV_AT_EPOCH":"130","BSTAR":"-0.01657800000000","NORAD_CAT_ID":"52353","DECAY_DATE":null,"COUNTRY_CODE":"US","PERIOD":"93.243","RA_OF_ASC_NODE":"141.3591","SITE":"AFETR","MEAN_MOTION_DOT":"-0.00718755","TIME_SYSTEM":"UTC","ELEMENT_SET_NO":"999","OBJECT_ID":"2022-045Y","FILE":"3504942","MEAN_MOTION_DDOT":"0.0000000000000","CENTER_NAME":"EARTH","CLASSIFICATION_TYPE":"U","ARG_OF_PERICENTER":"43.3856","EPOCH":"2022-06-28T22:00:00.999936","ECCENTRICITY":"0.00015870","EPHEMERIS_TYPE":"0","MEAN_MOTION":"15.44356288","MEAN_ELEMENT_THEORY":"SGP4","PERIAPSIS":"432.191","REF_FRAME":"TEME"},{"APOAPSIS":"431.308","REV_AT_EPOCH":"130","PERIOD":"93.183","BSTAR":"-0.01602300000000","NORAD_CAT_ID":"52354","DECAY_DATE":null,"COUNTRY_CODE":"US","OBJECT_NAME":"STARLINK-3876","RCS_SIZE":"LARGE","MEAN_ANOMALY":"266.4036","TLE_LINE1":"1 52354U 22045Z   22179.91667824 -.00718600  00000-0 -16023-1 0  9993","OBJECT_TYPE":"PAYLOAD","LAUNCH_DATE":"2022-04-29","SEMIMAJOR_AXIS":"6808.506","TLE_LINE2":"2 52354  53.2176 141.4126 0001375  53.2791 266.4036 15.45343344  1304","GP_ID":"207062874","INCLINATION":"53.2176","EPOCH":"2022-06-28T22:00:00.999936","ECCENTRICITY":"0.00013750","PERIAPSIS":"429.435","REF_FRAME":"TEME","EPHEMERIS_TYPE":"0","MEAN_MOTION":"15.45343344","MEAN_ELEMENT_THEORY":"SGP4","TIME_SYSTEM":"UTC","ELEMENT_SET_NO":"999","RA_OF_ASC_NODE":"141.4126","SITE":"AFETR","MEAN_MOTION_DOT":"-0.00718600","ARG_OF_PERICENTER":"53.2791","OBJECT_ID":"2022-045Z","FILE":"3504942","MEAN_MOTION_DDOT":"0.0000000000000","CENTER_NAME":"EARTH","CLASSIFICATION_TYPE":"U"},{"ELEMENT_SET_NO":"999","TIME_SYSTEM":"UTC","MEAN_MOTION_DOT":"-0.00718841","RA_OF_ASC_NODE":"141.3700","SITE":"AFETR","ARG_OF_PERICENTER":"42.8907","CENTER_NAME":"EARTH","CLASSIFICATION_TYPE":"U","MEAN_MOTION_DDOT":"0.0000000000000","FILE":"3504942","OBJECT_ID":"2022-045AA","ECCENTRICITY":"0.00015930","EPOCH":"2022-06-28T22:00:00.999936","PERIAPSIS":"431.604","REF_FRAME":"TEME","MEAN_MOTION":"15.44554561","MEAN_ELEMENT_THEORY":"SGP4","EPHEMERIS_TYPE":"0","MEAN_ANOMALY":"263.8629","RCS_SIZE":"LARGE","OBJECT_NAME":"STARLINK-3877","GP_ID":"207062774","SEMIMAJOR_AXIS":"6810.824","TLE_LINE2":"2 52355  53.2176 141.3700 0001593  42.8907 263.8629 15.44554561  1300","LAUNCH_DATE":"2022-04-29","TLE_LINE1":"1 52355U 22045AA  22179.91667824 -.00718841  00000-0 -16468-1 0  9994","OBJECT_TYPE":"PAYLOAD","INCLINATION":"53.2176","REV_AT_EPOCH":"130","APOAPSIS":"433.774","PERIOD":"93.231","COUNTRY_CODE":"US","DECAY_DATE":null,"NORAD_CAT_ID":"52355","BSTAR":"-0.01646800000000"}];
